start=new Date('2022-12-19T00:00:00.000Z').valueOf();
sats=[{"REF_FRAME":"TEME","TLE_LINE1":"1 51141U 22005AP  22352.81444568 -.00000389  00000-0 -63224-5 0  9999","INCLINATION":"53.2150","APOAPSIS":"541.848","MEAN_MOTION":"15.08847080","REV_AT_EPOCH":"5107","NORAD_CAT_ID":"51141","LAUNCH_DATE":"2022-01-19","ECCENTRICITY":"0.00030700","MEAN_ELEMENT_THEORY":"SGP4","SITE":"AFETR","SEMIMAJOR_AXIS":"6917.859","FILE":"3709623","RCS_SIZE":"LARGE","MEAN_MOTION_DOT":"-0.00000389","EPHEMERIS_TYPE":"0","BSTAR":"-0.00000632240000","EPOCH":"2022-12-18T19:32:48.106752","OBJECT_TYPE":"PAYLOAD","MEAN_ANOMALY":"321.9151","PERIOD":"95.437","RA_OF_ASC_NODE":"182.3283","PERIAPSIS":"537.600","ELEMENT_SET_NO":"999","CENTER_NAME":"EARTH","COUNTRY_CODE":"US","TLE_LINE2":"2 51141  53.2150 182.3283 0003070  38.2059 321.9151 15.08847080 51070","ARG_OF_PERICENTER":"38.2059","MEAN_MOTION_DDOT":"0.0000000000000","CLASSIFICATION_TYPE":"U","OBJECT_ID":"2022-005AP","TIME_SYSTEM":"UTC","OBJECT_NAME":"STARLINK-3179","GP_ID":"220870658","DECAY_DATE":null},{"MEAN_MOTION_DOT":"-0.00000414","RCS_SIZE":"LARGE","FILE":"3709623","SEMIMAJOR_AXIS":"6917.873","SITE":"AFETR","BSTAR":"-0.00000790560000","EPHEMERIS_TYPE":"0","MEAN_ANOMALY":"318.7742","EPOCH":"2022-12-18T21:00:18.325440","OBJECT_TYPE":"PAYLOAD","PERIOD":"95.437","TLE_LINE1":"1 51142U 22005AQ  22352.87521210 -.00000414  00000-0 -79056-5 0  9995","REF_FRAME":"TEME","MEAN_MOTION":"15.08842281","APOAPSIS":"541.747","INCLINATION":"53.2154","REV_AT_EPOCH":"5121","MEAN_ELEMENT_THEORY":"SGP4","LAUNCH_DATE":"2022-01-19","ECCENTRICITY":"0.00029040","NORAD_CAT_ID":"51142","OBJECT_NAME":"STARLINK-3369","GP_ID":"220869409","DECAY_DATE":null,"RA_OF_ASC_NODE":"172.0557","TLE_LINE2":"2 51142  53.2154 172.0557 0002904  41.3469 318.7742 15.08842281 51214","COUNTRY_CODE":"US","CENTER_NAME":"EARTH","ELEMENT_SET_NO":"999","PERIAPSIS":"537.729","CLASSIFICATION_TYPE":"U","MEAN_MOTION_DDOT":"0.0000000000000","ARG_OF_PERICENTER":"41.3469","TIME_SYSTEM":"UTC","OBJECT_ID":"2022-005AQ"},{"APOAPSIS":"541.418","MEAN_MOTION":"15.08820947","INCLINATION":"53.2147","TLE_LINE1":"1 51143U 22005AR  22352.86505636 -.00001119  00000-0 -52205-4 0  9998","REF_FRAME":"TEME","MEAN_ELEMENT_THEORY":"SGP4","NORAD_CAT_ID":"51143","LAUNCH_DATE":"2022-01-19","ECCENTRICITY":"0.00023330","REV_AT_EPOCH":"5093","EPHEMERIS_TYPE":"0","BSTAR":"-0.00005220500000","SEMIMAJOR_AXIS":"6917.939","FILE":"3709623","RCS_SIZE":"LARGE","MEAN_MOTION_DOT":"-0.00001119","SITE":"AFETR","PERIOD":"95.439","MEAN_ANOMALY":"323.3663","OBJECT_TYPE":"PAYLOAD","EPOCH":"2022-12-18T20:45:40.869504","COUNTRY_CODE":"US","TLE_LINE2":"2 51143  53.2147 192.0980 0002333  36.7489 323.3663 15.08820947 50932","PERIAPSIS":"538.190","ELEMENT_SET_NO":"999","CENTER_NAME":"EARTH","RA_OF_ASC_NODE":"192.0980","TIME_SYSTEM":"UTC","OBJECT_ID":"2022-005AR","MEAN_MOTION_DDOT":"0.0000000000000","CLASSIFICATION_TYPE":"U","ARG_OF_PERICENTER":"36.7489","DECAY_DATE":null,"GP_ID":"220870159","OBJECT_NAME":"STARLINK-3184"},{"EPOCH":"2022-12-18T19:38:07.410048","OBJECT_TYPE":"PAYLOAD","MEAN_ANOMALY":"331.3024","PERIOD":"95.438","SITE":"AFETR","MEAN_MOTION_DOT":"-0.00000220","RCS_SIZE":"LARGE","FILE":"3709623","SEMIMAJOR_AXIS":"6917.923","BSTAR":"0.00000432650000","EPHEMERIS_TYPE":"0","REV_AT_EPOCH":"5107","ECCENTRICITY":"0.00029860","LAUNCH_DATE":"2022-01-19","NORAD_CAT_ID":"51144","MEAN_ELEMENT_THEORY":"SGP4","REF_FRAME":"TEME","TLE_LINE1":"1 51144U 22005AS  22352.81814132 -.00000220  00000-0  43265-5 0  9996","INCLINATION":"53.2164","MEAN_MOTION":"15.08826033","APOAPSIS":"541.854","GP_ID":"220870411","OBJECT_NAME":"STARLINK-3185","DECAY_DATE":null,"ARG_OF_PERICENTER":"28.8133","MEAN_MOTION_DDOT":"0.0000000000000","CLASSIFICATION_TYPE":"U","OBJECT_ID":"2022-005AS","TIME_SYSTEM":"UTC","RA_OF_ASC_NODE":"182.3191","CENTER_NAME":"EARTH","ELEMENT_SET_NO":"999","PERIAPSIS":"537.722","TLE_LINE2":"2 51144  53.2164 182.3191 0002986  28.8133 331.3024 15.08826033 51078","COUNTRY_CODE":"US"},{"REF_FRAME":"TEME","TLE_LINE1":"1 51145U 22005AT  22352.86138014  .00001178  00000-0  92099-4 0  9990","INCLINATION":"53.2147","MEAN_MOTION":"15.08826680","APOAPSIS":"540.808","REV_AT_EPOCH":"5093","ECCENTRICITY":"0.00014770","LAUNCH_DATE":"2022-01-19","NORAD_CAT_ID":"51145","MEAN_ELEMENT_THEORY":"SGP4","SITE":"AFETR","MEAN_MOTION_DOT":"0.00001178","FILE":"3709623","SEMIMAJOR_AXIS":"6917.921","RCS_SIZE":"MEDIUM","EPHEMERIS_TYPE":"0","BSTAR":"0.00009209900000","EPOCH":"2022-12-18T20:40:23.244096","OBJECT_TYPE":"PAYLOAD","MEAN_ANOMALY":"295.9488","PERIOD":"95.438","RA_OF_ASC_NODE":"192.1178","CENTER_NAME":"EARTH","PERIAPSIS":"538.764","ELEMENT_SET_NO":"999","TLE_LINE2":"2 51145  53.2147 192.1178 0001477  64.1656 295.9488 15.08826680 50932","COUNTRY_CODE":"US","ARG_OF_PERICENTER":"64.1656","MEAN_MOTION_DDOT":"0.0000000000000","CLASSIFICATION_TYPE":"U","OBJECT_ID":"2022-005AT","TIME_SYSTEM":"UTC","GP_ID":"220871157","OBJECT_NAME":"STARLINK-3365","DECAY_DATE":null},{"NORAD_CAT_ID":"51146","LAUNCH_DATE":"2022-01-19","ECCENTRICITY":"0.00026200","MEAN_ELEMENT_THEORY":"SGP4","REV_AT_EPOCH":"5107","INCLINATION":"53.2156","APOAPSIS":"541.565","MEAN_MOTION":"15.08837606","REF_FRAME":"TEME","TLE_LINE1":"1 51146U 22005AU  22352.89173201 -.00002160  00000-0 -11764-3 0  9994","PERIOD":"95.438","EPOCH":"2022-12-18T21:24:05.645664","OBJECT_TYPE":"PAYLOAD","MEAN_ANOMALY":"320.0178","EPHEMERIS_TYPE":"0","BSTAR":"-0.00011764000000","SITE":"AFETR","SEMIMAJOR_AXIS":"6917.888","FILE":"3709623","RCS_SIZE":"LARGE","MEAN_MOTION_DOT":"-0.00002160","OBJECT_ID":"2022-005AU","TIME_SYSTEM":"UTC","ARG_OF_PERICENTER":"40.1007","MEAN_MOTION_DDOT":"0.0000000000000","CLASSIFICATION_TYPE":"U","ELEMENT_SET_NO":"999","PERIAPSIS":"537.940","CENTER_NAME":"EARTH","COUNTRY_CODE":"US","TLE_LINE2":"2 51146  53.2156 181.9827 0002620  40.1007 320.0178 15.08837606 51077","RA_OF_ASC_NODE":"181.9827","DECAY_DATE":null,"OBJECT_NAME":"STARLINK-3354","GP_ID":"220869909"},{"PERIOD":"95.438","MEAN_ANOMALY":"328.7784","EPOCH":"2022-12-18T19:15:33.870240","OBJECT_TYPE":"PAYLOAD","EPHEMERIS_TYPE":"0","BSTAR":"0.00032030000000","MEAN_MOTION_DOT":"0.00004813","FILE":"3709623","SEMIMAJOR_AXIS":"6917.883","RCS_SIZE":"LARGE","SITE":"AFETR","MEAN_ELEMENT_THEORY":"SGP4","ECCENTRICITY":"0.00025290","LAUNCH_DATE":"2022-01-19","NORAD_CAT_ID":"51147","REV_AT_EPOCH":"5092","MEAN_MOTION":"15.08839031","APOAPSIS":"541.498","INCLINATION":"53.2146","TLE_LINE1":"1 51147U 22005AV  22352.80247535  .00004813  00000-0  32030-3 0  9992","REF_FRAME":"TEME","DECAY_DATE":null,"OBJECT_NAME":"STARLINK-3352","GP_ID":"220869660","TIME_SYSTEM":"UTC","OBJECT_ID":"2022-005AV","MEAN_MOTION_DDOT":"0.0000000000000","CLASSIFICATION_TYPE":"U","ARG_OF_PERICENTER":"31.3358","TLE_LINE2":"2 51147  53.2146 192.3849 0002529  31.3358 328.7784 15.08839031 50921","COUNTRY_CODE":"US","CENTER_NAME":"EARTH","ELEMENT_SET_NO":"999","PERIAPSIS":"537.999","RA_OF_ASC_NODE":"192.3849"},{"DECAY_DATE":null,"GP_ID":"220870911","OBJECT_NAME":"STARLINK-3359","OBJECT_ID":"2022-005AW","TIME_SYSTEM":"UTC","ARG_OF_PERICENTER":"34.2318","CLASSIFICATION_TYPE":"U","MEAN_MOTION_DDOT":"0.0000000000000","ELEMENT_SET_NO":"999","PERIAPSIS":"537.846","CENTER_NAME":"EARTH","COUNTRY_CODE":"US","TLE_LINE2":"2 51148  53.2158 192.1286 0002790  34.2318 325.8854 15.08829794 50938","RA_OF_ASC_NODE":"192.1286","PERIOD":"95.438","OBJECT_TYPE":"PAYLOAD","EPOCH":"2022-12-18T20:35:04.935264","MEAN_ANOMALY":"325.8854","EPHEMERIS_TYPE":"0","BSTAR":"0.00001188100000","SITE":"AFETR","SEMIMAJOR_AXIS":"6917.912","FILE":"3709623","RCS_SIZE":"LARGE","MEAN_MOTION_DOT":"-0.00000099","NORAD_CAT_ID":"51148","LAUNCH_DATE":"2022-01-19","ECCENTRICITY":"0.00027900","MEAN_ELEMENT_THEORY":"SGP4","REV_AT_EPOCH":"5093","INCLINATION":"53.2158","APOAPSIS":"541.707","MEAN_MOTION":"15.08829794","REF_FRAME":"TEME","TLE_LINE1":"1 51148U 22005AW  22352.85769601 -.00000099  00000-0  11881-4 0  9996"},{"MEAN_MOTION_DDOT":"0.0000000000000","CLASSIFICATION_TYPE":"U","ARG_OF_PERICENTER":"41.0367","TIME_SYSTEM":"UTC","OBJECT_ID":"2022-005AX","RA_OF_ASC_NODE":"191.8381","COUNTRY_CODE":"US","TLE_LINE2":"2 51149  53.2158 191.8381 0002739  41.0367 319.0831 15.08844208 50942","ELEMENT_SET_NO":"999","PERIAPSIS":"537.838","CENTER_NAME":"EARTH","OBJECT_NAME":"STARLINK-3360","GP_ID":"220870659","DECAY_DATE":null,"REV_AT_EPOCH":"5094","MEAN_ELEMENT_THEORY":"SGP4","NORAD_CAT_ID":"51149","ECCENTRICITY":"0.00027390","LAUNCH_DATE":"2022-01-19","TLE_LINE1":"1 51149U 22005AX  22352.92024358 -.00000032  00000-0  16100-4 0  9994","REF_FRAME":"TEME","APOAPSIS":"541.627","MEAN_MOTION":"15.08844208","INCLINATION":"53.2158","MEAN_ANOMALY":"319.0831","EPOCH":"2022-12-18T22:05:09.045312","OBJECT_TYPE":"PAYLOAD","PERIOD":"95.437","SEMIMAJOR_AXIS":"6917.868","FILE":"3709623","RCS_SIZE":"LARGE","MEAN_MOTION_DOT":"-0.00000032","SITE":"AFETR","BSTAR":"0.00001610000000","EPHEMERIS_TYPE":"0"},{"DECAY_DATE":null,"OBJECT_NAME":"STARLINK-3357","GP_ID":"220869410","TLE_LINE2":"2 51150  53.2165 182.0507 0002345  47.4287 312.6903 15.08842500 51086","COUNTRY_CODE":"US","CENTER_NAME":"EARTH","PERIAPSIS":"538.116","ELEMENT_SET_NO":"999","RA_OF_ASC_NODE":"182.0507","TIME_SYSTEM":"UTC","OBJECT_ID":"2022-005AY","MEAN_MOTION_DDOT":"0.0000000000000","CLASSIFICATION_TYPE":"U","ARG_OF_PERICENTER":"47.4287","BSTAR":"0.00005392800000","EPHEMERIS_TYPE":"0","MEAN_MOTION_DOT":"0.00000570","FILE":"3709623","RCS_SIZE":"LARGE","SEMIMAJOR_AXIS":"6917.873","SITE":"AFETR","PERIOD":"95.437","MEAN_ANOMALY":"312.6903","OBJECT_TYPE":"PAYLOAD","EPOCH":"2022-12-18T21:02:53.655360","MEAN_MOTION":"15.08842500","APOAPSIS":"541.360","INCLINATION":"53.2165","TLE_LINE1":"1 51150U 22005AY  22352.87700990  .00000570  00000-0  53928-4 0  9998","REF_FRAME":"TEME","MEAN_ELEMENT_THEORY":"SGP4","ECCENTRICITY":"0.00023450","LAUNCH_DATE":"2022-01-19","NORAD_CAT_ID":"51150","REV_AT_EPOCH":"5108"}];
